start=new Date('2022-04-28T00:00:00.000Z').valueOf();
sats=[{"TLE_LINE2":"2 46147  53.0553 176.7313 0002240  34.4577 325.6557 15.06391527 94455","RA_OF_ASC_NODE":"176.7313","COUNTRY_CODE":"US","INCLINATION":"53.0553","BSTAR":"0.00010881000000","RCS_SIZE":"LARGE","ECCENTRICITY":"0.00022400","GP_ID":"202156869","EPHEMERIS_TYPE":"0","TLE_LINE1":"1 46147U 20057AG  22117.37741462  .00001339  00000-0  10881-3 0  9990","SEMIMAJOR_AXIS":"6925.375","PERIAPSIS":"545.688","MEAN_MOTION_DOT":"0.00001339","FILE":"3418497","LAUNCH_DATE":"2020-08-18","ELEMENT_SET_NO":"999","MEAN_ANOMALY":"325.6557","MEAN_ELEMENT_THEORY":"SGP4","REF_FRAME":"TEME","OBJECT_TYPE":"PAYLOAD","ARG_OF_PERICENTER":"34.4577","MEAN_MOTION":"15.06391527","CLASSIFICATION_TYPE":"U","TIME_SYSTEM":"UTC","OBJECT_ID":"2020-057AG","EPOCH":"2022-04-27T09:03:28.623168","MEAN_MOTION_DDOT":"0.0000000000000","REV_AT_EPOCH":"9445","SITE":"AFETR","CENTER_NAME":"EARTH","DECAY_DATE":null,"APOAPSIS":"548.791","PERIOD":"95.593","NORAD_CAT_ID":"46147","OBJECT_NAME":"STARLINK-1611"},{"RA_OF_ASC_NODE":"156.7099","COUNTRY_CODE":"US","INCLINATION":"53.0547","TLE_LINE2":"2 46148  53.0547 156.7099 0001775  46.7361 313.3776 15.06393683 93470","SEMIMAJOR_AXIS":"6925.368","PERIAPSIS":"546.004","MEAN_MOTION_DOT":"0.00001068","FILE":"3418497","BSTAR":"0.00009057300000","RCS_SIZE":"LARGE","ECCENTRICITY":"0.00017750","GP_ID":"202155623","TLE_LINE1":"1 46148U 20057AH  22117.38294869  .00001068  00000-0  90573-4 0  9992","EPHEMERIS_TYPE":"0","TIME_SYSTEM":"UTC","OBJECT_ID":"2020-057AH","EPOCH":"2022-04-27T09:11:26.766816","ELEMENT_SET_NO":"999","LAUNCH_DATE":"2020-08-18","MEAN_ANOMALY":"313.3776","MEAN_ELEMENT_THEORY":"SGP4","OBJECT_TYPE":"PAYLOAD","REF_FRAME":"TEME","ARG_OF_PERICENTER":"46.7361","CLASSIFICATION_TYPE":"U","MEAN_MOTION":"15.06393683","NORAD_CAT_ID":"46148","OBJECT_NAME":"STARLINK-1616","MEAN_MOTION_DDOT":"0.0000000000000","REV_AT_EPOCH":"9347","SITE":"AFETR","DECAY_DATE":null,"CENTER_NAME":"EARTH","APOAPSIS":"548.462","PERIOD":"95.593"},{"RA_OF_ASC_NODE":"154.8636","COUNTRY_CODE":"US","INCLINATION":"53.0548","TLE_LINE2":"2 46149  53.0548 154.8636 0001778  51.6278 308.4871 15.06396656 94209","SEMIMAJOR_AXIS":"6925.359","PERIAPSIS":"545.992","FILE":"3418539","MEAN_MOTION_DOT":"0.00000073","ECCENTRICITY":"0.00017780","RCS_SIZE":"LARGE","BSTAR":"0.00002380500000","GP_ID":"202161848","TLE_LINE1":"1 46149U 20057AJ  22117.79576304  .00000073  00000-0  23805-4 0  9994","EPHEMERIS_TYPE":"0","TIME_SYSTEM":"UTC","OBJECT_ID":"2020-057AJ","EPOCH":"2022-04-27T19:05:53.926656","ELEMENT_SET_NO":"999","LAUNCH_DATE":"2020-08-18","MEAN_ANOMALY":"308.4871","MEAN_ELEMENT_THEORY":"SGP4","OBJECT_TYPE":"PAYLOAD","REF_FRAME":"TEME","ARG_OF_PERICENTER":"51.6278","CLASSIFICATION_TYPE":"U","MEAN_MOTION":"15.06396656","NORAD_CAT_ID":"46149","OBJECT_NAME":"STARLINK-1620","MEAN_MOTION_DDOT":"0.0000000000000","REV_AT_EPOCH":"9420","SITE":"AFETR","APOAPSIS":"548.455","CENTER_NAME":"EARTH","DECAY_DATE":null,"PERIOD":"95.592"},{"EPOCH":"2022-04-27T11:00:14.921856","TIME_SYSTEM":"UTC","OBJECT_ID":"2020-057AK","ARG_OF_PERICENTER":"51.5376","MEAN_MOTION":"15.06393984","CLASSIFICATION_TYPE":"U","MEAN_ANOMALY":"308.5785","LAUNCH_DATE":"2020-08-18","ELEMENT_SET_NO":"999","MEAN_ELEMENT_THEORY":"SGP4","REF_FRAME":"TEME","OBJECT_TYPE":"PAYLOAD","OBJECT_NAME":"STARLINK-1629","NORAD_CAT_ID":"46150","CENTER_NAME":"EARTH","DECAY_DATE":null,"APOAPSIS":"548.562","PERIOD":"95.593","REV_AT_EPOCH":"9321","MEAN_MOTION_DDOT":"0.0000000000000","SITE":"AFETR","INCLINATION":"53.0539","RA_OF_ASC_NODE":"176.3647","COUNTRY_CODE":"US","TLE_LINE2":"2 46150  53.0539 176.3647 0001921  51.5376 308.5785 15.06393984 93216","PERIAPSIS":"545.902","MEAN_MOTION_DOT":"-0.00001979","FILE":"3418497","SEMIMAJOR_AXIS":"6925.367","EPHEMERIS_TYPE":"0","TLE_LINE1":"1 46150U 20057AK  22117.45850604 -.00001979  00000-0 -11401-3 0  9993","BSTAR":"-0.00011401000000","RCS_SIZE":"LARGE","ECCENTRICITY":"0.00019210","GP_ID":"202156624"},{"OBJECT_ID":"2020-057AL","TIME_SYSTEM":"UTC","EPOCH":"2022-04-27T12:01:17.262336","OBJECT_TYPE":"PAYLOAD","REF_FRAME":"TEME","ELEMENT_SET_NO":"999","LAUNCH_DATE":"2020-08-18","MEAN_ANOMALY":"309.1506","MEAN_ELEMENT_THEORY":"SGP4","CLASSIFICATION_TYPE":"U","MEAN_MOTION":"15.06396998","ARG_OF_PERICENTER":"50.9626","NORAD_CAT_ID":"46151","OBJECT_NAME":"STARLINK-1631","SITE":"AFETR","REV_AT_EPOCH":"9415","MEAN_MOTION_DDOT":"0.0000000000000","PERIOD":"95.592","CENTER_NAME":"EARTH","DECAY_DATE":null,"APOAPSIS":"548.336","COUNTRY_CODE":"US","RA_OF_ASC_NODE":"156.1751","INCLINATION":"53.0527","TLE_LINE2":"2 46151  53.0527 156.1751 0001607  50.9626 309.1506 15.06396998 94158","SEMIMAJOR_AXIS":"6925.358","MEAN_MOTION_DOT":"0.00003207","FILE":"3418036","PERIAPSIS":"546.110","GP_ID":"202125457","BSTAR":"0.00023413000000","RCS_SIZE":"LARGE","ECCENTRICITY":"0.00016070","EPHEMERIS_TYPE":"0","TLE_LINE1":"1 46151U 20057AL  22117.50089424  .00003207  00000-0  23413-3 0  9994"},{"MEAN_MOTION":"15.06393715","CLASSIFICATION_TYPE":"U","ARG_OF_PERICENTER":"52.6187","REF_FRAME":"TEME","OBJECT_TYPE":"PAYLOAD","ELEMENT_SET_NO":"999","LAUNCH_DATE":"2020-08-18","MEAN_ELEMENT_THEORY":"SGP4","MEAN_ANOMALY":"307.4954","EPOCH":"2022-04-27T11:37:24.501504","OBJECT_ID":"2020-057AM","TIME_SYSTEM":"UTC","PERIOD":"95.593","APOAPSIS":"548.392","CENTER_NAME":"EARTH","DECAY_DATE":null,"SITE":"AFETR","REV_AT_EPOCH":"9387","MEAN_MOTION_DDOT":"0.0000000000000","OBJECT_NAME":"STARLINK-1634","NORAD_CAT_ID":"46152","TLE_LINE2":"2 46152  53.0538 176.2598 0001674  52.6187 307.4954 15.06393715 93878","INCLINATION":"53.0538","COUNTRY_CODE":"US","RA_OF_ASC_NODE":"176.2598","TLE_LINE1":"1 46152U 20057AM  22117.48431136  .00000055  00000-0  22603-4 0  9992","EPHEMERIS_TYPE":"0","GP_ID":"202125497","ECCENTRICITY":"0.00016740","RCS_SIZE":"LARGE","BSTAR":"0.00002260300000","FILE":"3418029","MEAN_MOTION_DOT":"0.00000055","PERIAPSIS":"546.074","SEMIMAJOR_AXIS":"6925.368"},{"TLE_LINE2":"2 46153  53.0544 156.1095 0001776  50.0512 310.0633 15.06391336 93491","RA_OF_ASC_NODE":"156.1095","COUNTRY_CODE":"US","INCLINATION":"53.0544","BSTAR":"0.00014263000000","RCS_SIZE":"LARGE","ECCENTRICITY":"0.00017760","GP_ID":"202155873","EPHEMERIS_TYPE":"0","TLE_LINE1":"1 46153U 20057AN  22117.51932325  .00001843  00000-0  14263-3 0  9991","SEMIMAJOR_AXIS":"6925.375","PERIAPSIS":"546.010","MEAN_MOTION_DOT":"0.00001843","FILE":"3418497","ELEMENT_SET_NO":"999","LAUNCH_DATE":"2020-08-18","MEAN_ANOMALY":"310.0633","MEAN_ELEMENT_THEORY":"SGP4","OBJECT_TYPE":"PAYLOAD","REF_FRAME":"TEME","ARG_OF_PERICENTER":"50.0512","CLASSIFICATION_TYPE":"U","MEAN_MOTION":"15.06391336","TIME_SYSTEM":"UTC","OBJECT_ID":"2020-057AN","EPOCH":"2022-04-27T12:27:49.528800","MEAN_MOTION_DDOT":"0.0000000000000","REV_AT_EPOCH":"9349","SITE":"AFETR","DECAY_DATE":null,"CENTER_NAME":"EARTH","APOAPSIS":"548.470","PERIOD":"95.593","NORAD_CAT_ID":"46153","OBJECT_NAME":"STARLINK-1636"},{"SEMIMAJOR_AXIS":"6925.378","PERIAPSIS":"546.084","MEAN_MOTION_DOT":"0.00000995","FILE":"3418497","BSTAR":"0.00008571300000","ECCENTRICITY":"0.00016740","RCS_SIZE":"LARGE","GP_ID":"202156124","TLE_LINE1":"1 46154U 20057AP  22117.52946733  .00000995  00000-0  85713-4 0  9997","EPHEMERIS_TYPE":"0","RA_OF_ASC_NODE":"166.0626","COUNTRY_CODE":"US","INCLINATION":"53.0546","TLE_LINE2":"2 46154  53.0546 166.0626 0001674  55.8053 304.3094 15.06390404 93362","NORAD_CAT_ID":"46154","OBJECT_NAME":"STARLINK-1642","REV_AT_EPOCH":"9336","MEAN_MOTION_DDOT":"0.0000000000000","SITE":"AFETR","DECAY_DATE":null,"CENTER_NAME":"EARTH","APOAPSIS":"548.402","PERIOD":"95.593","TIME_SYSTEM":"UTC","OBJECT_ID":"2020-057AP","EPOCH":"2022-04-27T12:42:25.977312","ELEMENT_SET_NO":"999","LAUNCH_DATE":"2020-08-18","MEAN_ANOMALY":"304.3094","MEAN_ELEMENT_THEORY":"SGP4","REF_FRAME":"TEME","OBJECT_TYPE":"PAYLOAD","ARG_OF_PERICENTER":"55.8053","MEAN_MOTION":"15.06390404","CLASSIFICATION_TYPE":"U"},{"GP_ID":"202156870","BSTAR":"0.00011734000000","ECCENTRICITY":"0.00017130","RCS_SIZE":"LARGE","TLE_LINE1":"1 46155U 20057AQ  22117.42164988  .00001466  00000-0  11734-3 0  9996","EPHEMERIS_TYPE":"0","SEMIMAJOR_AXIS":"6925.383","MEAN_MOTION_DOT":"0.00001466","FILE":"3418497","PERIAPSIS":"546.062","TLE_LINE2":"2 46155  53.0552 136.5257 0001713  45.9363 314.1767 15.06388766 95007","COUNTRY_CODE":"US","RA_OF_ASC_NODE":"136.5257","INCLINATION":"53.0552","SITE":"AFETR","MEAN_MOTION_DDOT":"0.0000000000000","REV_AT_EPOCH":"9500","PERIOD":"95.593","CENTER_NAME":"EARTH","DECAY_DATE":null,"APOAPSIS":"548.434","NORAD_CAT_ID":"46155","OBJECT_NAME":"STARLINK-1667","OBJECT_TYPE":"PAYLOAD","REF_FRAME":"TEME","MEAN_ELEMENT_THEORY":"SGP4","LAUNCH_DATE":"2020-08-18","ELEMENT_SET_NO":"999","MEAN_ANOMALY":"314.1767","MEAN_MOTION":"15.06388766","CLASSIFICATION_TYPE":"U","ARG_OF_PERICENTER":"45.9363","OBJECT_ID":"2020-057AQ","TIME_SYSTEM":"UTC","EPOCH":"2022-04-27T10:07:10.549632"},{"PERIAPSIS":"545.983","MEAN_MOTION_DOT":"0.00001810","FILE":"3418497","SEMIMAJOR_AXIS":"6925.357","TLE_LINE1":"1 46156U 20057AR  22117.47877866  .00001810  00000-0  14042-3 0  9996","EPHEMERIS_TYPE":"0","BSTAR":"0.00014042000000","RCS_SIZE":"LARGE","ECCENTRICITY":"0.00017890","GP_ID":"202155624","INCLINATION":"53.0552","RA_OF_ASC_NODE":"156.2658","COUNTRY_CODE":"US","TLE_LINE2":"2 46156  53.0552 156.2658 0001789  46.2843 313.8294 15.06397229 94747","OBJECT_NAME":"STARLINK-1545","NORAD_CAT_ID":"46156","CENTER_NAME":"EARTH","DECAY_DATE":null,"APOAPSIS":"548.461","PERIOD":"95.592","REV_AT_EPOCH":"9474","MEAN_MOTION_DDOT":"0.0000000000000","SITE":"AFETR","EPOCH":"2022-04-27T11:29:26.476224","TIME_SYSTEM":"UTC","OBJECT_ID":"2020-057AR","ARG_OF_PERICENTER":"46.2843","MEAN_MOTION":"15.06397229","CLASSIFICATION_TYPE":"U","ELEMENT_SET_NO":"999","LAUNCH_DATE":"2020-08-18","MEAN_ELEMENT_THEORY":"SGP4","MEAN_ANOMALY":"313.8294","OBJECT_TYPE":"PAYLOAD","REF_FRAME":"TEME"}];
